[{"OBJECT_NAME":"WGS F9 (USA 275)","OBJECT_ID":"2017-016A","EPOCH":"2026-04-04T21:42:38.678976","MEAN_MOTION":1.00274435,"ECCENTRICITY":2.195e-5,"INCLINATION":0.0093,"RA_OF_ASC_NODE":210.1493,"ARG_OF_PERICENTER":318.2459,"MEAN_ANOMALY":338.4728,"EPHEMERIS_TYPE":0,"CLASSIFICATION_TYPE":"U","NORAD_CAT_ID":42075,"ELEMENT_SET_NO":999,"REV_AT_EPOCH":3316,"BSTAR":0,"MEAN_MOTION_DOT":-9.5e-7,"MEAN_MOTION_DDOT":0},{"OBJECT_NAME":"SES-10","OBJECT_ID":"2017-017A","EPOCH":"2026-04-04T21:01:34.453344","MEAN_MOTION":1.00272624,"ECCENTRICITY":0.00028444,"INCLINATION":0.0237,"RA_OF_ASC_NODE":81.594,"ARG_OF_PERICENTER":308.5684,"MEAN_ANOMALY":51.5171,"EPHEMERIS_TYPE":0,"CLASSIFICATION_TYPE":"U","NORAD_CAT_ID":42432,"ELEMENT_SET_NO":999,"REV_AT_EPOCH":3301,"BSTAR":0,"MEAN_MOTION_DOT":-2.72e-6,"MEAN_MOTION_DDOT":0},{"OBJECT_NAME":"CZ-3B DEB","OBJECT_ID":"2010-042Z","EPOCH":"2026-04-02T02:10:37.701696","MEAN_MOTION":1.81277562,"ECCENTRICITY":0.75040772,"INCLINATION":30.2807,"RA_OF_ASC_NODE":272.353,"ARG_OF_PERICENTER":199.3916,"MEAN_ANOMALY":99.0513,"EPHEMERIS_TYPE":0,"CLASSIFICATION_TYPE":"U","NORAD_CAT_ID":42458,"ELEMENT_SET_NO":999,"REV_AT_EPOCH":7509,"BSTAR":0.0082497218,"MEAN_MOTION_DOT":2.05e-6,"MEAN_MOTION_DDOT":0},{"OBJECT_NAME":"CZ-3B DEB","OBJECT_ID":"2010-042AB","EPOCH":"2026-04-04T02:40:03.429120","MEAN_MOTION":1.90172889,"ECCENTRICITY":0.7477684,"INCLINATION":29.8595,"RA_OF_ASC_NODE":122.5162,"ARG_OF_PERICENTER":68.9748,"MEAN_ANOMALY":351.8655,"EPHEMERIS_TYPE":0,"CLASSIFICATION_TYPE":"U","NORAD_CAT_ID":42460,"ELEMENT_SET_NO":999,"REV_AT_EPOCH":52,"BSTAR":0.0055134162,"MEAN_MOTION_DOT":3.44e-6,"MEAN_MOTION_DDOT":0},{"OBJECT_NAME":"CZ-3B DEB","OBJECT_ID":"2010-042AF","EPOCH":"2026-04-04T14:31:10.001568","MEAN_MOTION":1.82495801,"ECCENTRICITY":0.73859067,"INCLINATION":24.6906,"RA_OF_ASC_NODE":292.2981,"ARG_OF_PERICENTER":9.6538,"MEAN_ANOMALY":359.1068,"EPHEMERIS_TYPE":0,"CLASSIFICATION_TYPE":"U","NORAD_CAT_ID":42464,"ELEMENT_SET_NO":999,"REV_AT_EPOCH":8118,"BSTAR":0,"MEAN_MOTION_DOT":-8.4e-7,"MEAN_MOTION_DDOT":0},{"OBJECT_NAME":"CZ-3B DEB","OBJECT_ID":"2011-077AL","EPOCH":"2026-04-03T23:40:36.179904","MEAN_MOTION":1.89262175,"ECCENTRICITY":0.7459957,"INCLINATION":26.4732,"RA_OF_ASC_NODE":330.0668,"ARG_OF_PERICENTER":89.7734,"MEAN_ANOMALY":346.544,"EPHEMERIS_TYPE":0,"CLASSIFICATION_TYPE":"U","NORAD_CAT_ID":42471,"ELEMENT_SET_NO":999,"REV_AT_EPOCH":3328,"BSTAR":0.0027902433,"MEAN_MOTION_DOT":-1.27e-6,"MEAN_MOTION_DDOT":0},{"OBJECT_NAME":"CZ-3B DEB","OBJECT_ID":"2011-077AN","EPOCH":"2026-04-03T20:39:49.398624","MEAN_MOTION":1.69221017,"ECCENTRICITY":0.71584158,"INCLINATION":23.2231,"RA_OF_ASC_NODE":77.1708,"ARG_OF_PERICENTER":80.1586,"MEAN_ANOMALY":347.563,"EPHEMERIS_TYPE":0,"CLASSIFICATION_TYPE":"U","NORAD_CAT_ID":42473,"ELEMENT_SET_NO":999,"REV_AT_EPOCH":6183,"BSTAR":0,"MEAN_MOTION_DOT":-1.49e-6,"MEAN_MOTION_DDOT":0},{"OBJECT_NAME":"CZ-3B DEB","OBJECT_ID":"2011-077AP","EPOCH":"2026-04-02T02:06:51.151392","MEAN_MOTION":1.66952266,"ECCENTRICITY":0.71483129,"INCLINATION":22.3924,"RA_OF_ASC_NODE":101.8578,"ARG_OF_PERICENTER":49.2052,"MEAN_ANOMALY":353.8964,"EPHEMERIS_TYPE":0,"CLASSIFICATION_TYPE":"U","NORAD_CAT_ID":42474,"ELEMENT_SET_NO":999,"REV_AT_EPOCH":6757,"BSTAR":0,"MEAN_MOTION_DOT":-1.22e-6,"MEAN_MOTION_DDOT":0},{"OBJECT_NAME":"CZ-3B DEB","OBJECT_ID":"2011-077AQ","EPOCH":"2026-04-04T20:43:07.159584","MEAN_MOTION":1.91448625,"ECCENTRICITY":0.7417276,"INCLINATION":26.5383,"RA_OF_ASC_NODE":324.3363,"ARG_OF_PERICENTER":95.6287,"MEAN_ANOMALY":344.3463,"EPHEMERIS_TYPE":0,"CLASSIFICATION_TYPE":"U","NORAD_CAT_ID":42475,"ELEMENT_SET_NO":999,"REV_AT_EPOCH":3148,"BSTAR":0.01267484,"MEAN_MOTION_DOT":3.0e-7,"MEAN_MOTION_DDOT":0},{"OBJECT_NAME":"ARIANE 2 DEB","OBJECT_ID":"1989-006CM","EPOCH":"2026-04-04T11:27:19.051776","MEAN_MOTION":2.17624784,"ECCENTRICITY":0.66920727,"INCLINATION":8.6209,"RA_OF_ASC_NODE":66.7569,"ARG_OF_PERICENTER":127.5226,"MEAN_ANOMALY":322.8075,"EPHEMERIS_TYPE":0,"CLASSIFICATION_TYPE":"U","NORAD_CAT_ID":42485,"ELEMENT_SET_NO":999,"REV_AT_EPOCH":9696,"BSTAR":0,"MEAN_MOTION_DOT":-1.73e-6,"MEAN_MOTION_DDOT":0},{"OBJECT_NAME":"CHINASAT 16 (SJ-13)","OBJECT_ID":"2017-018A","EPOCH":"2026-04-04T23:19:09.215616","MEAN_MOTION":1.00269734,"ECCENTRICITY":0.00041123,"INCLINATION":0.086,"RA_OF_ASC_NODE":85.0067,"ARG_OF_PERICENTER":170.4695,"MEAN_ANOMALY":38.0691,"EPHEMERIS_TYPE":0,"CLASSIFICATION_TYPE":"U","NORAD_CAT_ID":42662,"ELEMENT_SET_NO":999,"REV_AT_EPOCH":3301,"BSTAR":0,"MEAN_MOTION_DOT":-3.51e-6,"MEAN_MOTION_DDOT":0},{"OBJECT_NAME":"KOREASAT 7","OBJECT_ID":"2017-023A","EPOCH":"2026-04-04T21:12:06.329376","MEAN_MOTION":1.00271699,"ECCENTRICITY":0.00011315,"INCLINATION":0.0285,"RA_OF_ASC_NODE":51.055,"ARG_OF_PERICENTER":336.8421,"MEAN_ANOMALY":239.2211,"EPHEMERIS_TYPE":0,"CLASSIFICATION_TYPE":"U","NORAD_CAT_ID":42691,"ELEMENT_SET_NO":999,"REV_AT_EPOCH":3263,"BSTAR":0,"MEAN_MOTION_DOT":-3.61e-6,"MEAN_MOTION_DDOT":0},{"OBJECT_NAME":"SGDC","OBJECT_ID":"2017-023B","EPOCH":"2026-04-04T16:07:30.298944","MEAN_MOTION":1.00272383,"ECCENTRICITY":0.00029331,"INCLINATION":0.0467,"RA_OF_ASC_NODE":71.9781,"ARG_OF_PERICENTER":319.3361,"MEAN_ANOMALY":328.6961,"EPHEMERIS_TYPE":0,"CLASSIFICATION_TYPE":"U","NORAD_CAT_ID":42692,"ELEMENT_SET_NO":999,"REV_AT_EPOCH":3266,"BSTAR":0,"MEAN_MOTION_DOT":-2.49e-6,"MEAN_MOTION_DDOT":0},{"OBJECT_NAME":"GSAT-9","OBJECT_ID":"2017-024A","EPOCH":"2026-04-04T23:21:31.682304","MEAN_MOTION":1.00269438,"ECCENTRICITY":0.00029218,"INCLINATION":0.014,"RA_OF_ASC_NODE":319.2298,"ARG_OF_PERICENTER":51.8004,"MEAN_ANOMALY":269.9602,"EPHEMERIS_TYPE":0,"CLASSIFICATION_TYPE":"U","NORAD_CAT_ID":42695,"ELEMENT_SET_NO":999,"REV_AT_EPOCH":3256,"BSTAR":0,"MEAN_MOTION_DOT":0,"MEAN_MOTION_DDOT":0},{"OBJECT_NAME":"INMARSAT 5-F4","OBJECT_ID":"2017-025A","EPOCH":"2026-04-04T20:52:38.642880","MEAN_MOTION":1.00271118,"ECCENTRICITY":1.904e-5,"INCLINATION":0.0173,"RA_OF_ASC_NODE":205.9709,"ARG_OF_PERICENTER":191.2235,"MEAN_ANOMALY":165.6727,"EPHEMERIS_TYPE":0,"CLASSIFICATION_TYPE":"U","NORAD_CAT_ID":42698,"ELEMENT_SET_NO":999,"REV_AT_EPOCH":3254,"BSTAR":0,"MEAN_MOTION_DOT":0,"MEAN_MOTION_DDOT":0},{"OBJECT_NAME":"SES-15","OBJECT_ID":"2017-026A","EPOCH":"2026-04-04T15:35:42.567936","MEAN_MOTION":1.00269565,"ECCENTRICITY":6.81e-5,"INCLINATION":0.0315,"RA_OF_ASC_NODE":316.5365,"ARG_OF_PERICENTER":60.8774,"MEAN_ANOMALY":280.3092,"EPHEMERIS_TYPE":0,"CLASSIFICATION_TYPE":"U","NORAD_CAT_ID":42709,"ELEMENT_SET_NO":999,"REV_AT_EPOCH":669,"BSTAR":0,"MEAN_MOTION_DOT":6.0e-7,"MEAN_MOTION_DDOT":0},{"OBJECT_NAME":"COSMOS 2518","OBJECT_ID":"2017-027A","EPOCH":"2026-04-04T22:19:51.272256","MEAN_MOTION":2.01008565,"ECCENTRICITY":0.7010375,"INCLINATION":63.1019,"RA_OF_ASC_NODE":257.2787,"ARG_OF_PERICENTER":273.5744,"MEAN_ANOMALY":15.5114,"EPHEMERIS_TYPE":0,"CLASSIFICATION_TYPE":"U","NORAD_CAT_ID":42719,"ELEMENT_SET_NO":999,"REV_AT_EPOCH":6493,"BSTAR":0,"MEAN_MOTION_DOT":-1.054e-5,"MEAN_MOTION_DDOT":0}]
