WGS F9 (USA 275)        
1 42075U 17016A   26094.90461434 -.00000095  00000+0  00000+0 0  9998
2 42075   0.0093 210.1493 0000219 318.2459 338.4728  1.00274435 33160
SES-10                  
1 42432U 17017A   26094.87609321 -.00000272  00000+0  00000+0 0  9998
2 42432   0.0237  81.5940 0002844 308.5684  51.5171  1.00272624 33019
CZ-3B DEB               
1 42458U 10042Z   26092.09071414  .00000205  00000+0  82497-2 0  9993
2 42458  30.2807 272.3530 7504077 199.3916  99.0513  1.81277562 75092
CZ-3B DEB               
1 42460U 10042AB  26094.11115080  .00000344  00000+0  55134-2 0  9991
2 42460  29.8595 122.5162 7477684  68.9748 351.8655  1.90172889   525
CZ-3B DEB               
1 42464U 10042AF  26094.60497687 -.00000084  00000+0  00000+0 0  9996
2 42464  24.6906 292.2981 7385906   9.6538 359.1068  1.82495801 81189
CZ-3B DEB               
1 42471U 11077AL  26093.98652986 -.00000127  00000+0  27902-2 0  9999
2 42471  26.4732 330.0668 7459957  89.7734 346.5440  1.89262175 33287
CZ-3B DEB               
1 42473U 11077AN  26093.86098841 -.00000149  00000+0  00000+0 0  9993
2 42473  23.2231  77.1708 7158415  80.1586 347.5630  1.69221017 61839
CZ-3B DEB               
1 42474U 11077AP  26092.08809203 -.00000122  00000+0  00000+0 0  9990
2 42474  22.3924 101.8578 7148312  49.2052 353.8964  1.66952266 67579
CZ-3B DEB               
1 42475U 11077AQ  26094.86327731  .00000030  00000+0  12675-1 0  9990
2 42475  26.5383 324.3363 7417276  95.6287 344.3463  1.91448625 31489
ARIANE 2 DEB            
1 42485U 89006CM  26094.47730384 -.00000173  00000+0  00000+0 0  9993
2 42485   8.6209  66.7569 6692072 127.5226 322.8075  2.17624784 96964
CHINASAT 16 (SJ-13)     
1 42662U 17018A   26094.97163444 -.00000351  00000+0  00000+0 0  9994
2 42662   0.0860  85.0067 0004112 170.4695  38.0691  1.00269734 33018
KOREASAT 7              
1 42691U 17023A   26094.88340659 -.00000361  00000+0  00000+0 0  9998
2 42691   0.0285  51.0550 0001131 336.8421 239.2211  1.00271699 32637
SGDC                    
1 42692U 17023B   26094.67187846 -.00000249  00000+0  00000+0 0  9998
2 42692   0.0467  71.9781 0002933 319.3361 328.6961  1.00272383 32666
GSAT-9                  
1 42695U 17024A   26094.97328336  .00000000  00000+0  00000+0 0  9990
2 42695   0.0140 319.2298 0002921  51.8004 269.9602  1.00269438 32562
INMARSAT 5-F4           
1 42698U 17025A   26094.86989170  .00000000  00000+0  00000+0 0  9991
2 42698   0.0173 205.9709 0000190 191.2235 165.6727  1.00271118 32546
SES-15                  
1 42709U 17026A   26094.64979824  .00000060  00000+0  00000+0 0  9992
2 42709   0.0315 316.5365 0000681  60.8774 280.3092  1.00269565  6698
COSMOS 2518             
1 42719U 17027A   26094.93045454 -.00001054  00000+0  00000+0 0  9994
2 42719  63.1019 257.2787 7010375 273.5744  15.5114  2.01008565 64934
